{"type": "FeatureCollection", "features": [ {"type": "Feature", "properties": {"norad_id": 66806, "name": "STARLINK-36069", "group": "last-30-days", "lat": 18.379647828049084, "lon": 59.626996815329086, "alt_km": 298.09729428648734, "timestamp": "2025-12-11T08:58:25.855935+00:00", "meta": {"OBJECT_NAME": "STARLINK-36069", "OBJECT_ID": "2025-278R", "EPOCH": "2025-12-11T04:00:01.998720", "MEAN_MOTION": 15.91253178, "ECCENTRICITY": 0.0001948, "INCLINATION": 42.9984, "RA_OF_ASC_NODE": 261.8054, "ARG_OF_PERICENTER": 276.5211, "MEAN_ANOMALY": 127.5319, "EPHEMERIS_TYPE": 0, "CLASSIFICATION_TYPE": "U", "NORAD_CAT_ID": 66806, "ELEMENT_SET_NO": 999, "REV_AT_EPOCH": 249, "BSTAR": -0.0039049, "MEAN_MOTION_DOT": -0.01290403, "MEAN_MOTION_DDOT": 0.00047814}, "tle": {"line1": "1 66806U 25278R   25345.16668980 -.01290403  47814-3 -39049-2 0  9998", "line2": "2 66806  42.9984 261.8054 0001948 276.5211 127.5319 15.91253178  2491"}}, "geometry": {"type": "Point", "coordinates": [59.626996815329086, 18.379647828049084]}}, {"type": "Feature", "properties": {"norad_id": 66807, "name": "STARLINK-36000", "group": "last-30-days", "lat": 13.957132051102056, "lon": 65.03066236990816, "alt_km": 298.31603820918826, "timestamp": "2025-12-11T08:58:25.855945+00:00", "meta": {"OBJECT_NAME": "STARLINK-36000", "OBJECT_ID": "2025-278S", "EPOCH": "2025-12-11T04:00:01.998720", "MEAN_MOTION": 15.91396371, "ECCENTRICITY": 0.0001991, "INCLINATION": 42.9983, "RA_OF_ASC_NODE": 261.7883, "ARG_OF_PERICENTER": 275.185, "MEAN_ANOMALY": 135.5999, "EPHEMERIS_TYPE": 0, "CLASSIFICATION_TYPE": "U", "NORAD_CAT_ID": 66807, "ELEMENT_SET_NO": 999, "REV_AT_EPOCH": 276, "BSTAR": -0.0041045, "MEAN_MOTION_DOT": -0.01365575, "MEAN_MOTION_DDOT": 0.0005311}, "tle": {"line1": "1 66807U 25278S   25345.16668980 -.01365575  53110-3 -41045-2 0  9997", "line2": "2 66807  42.9983 261.7883 0001991 275.1850 135.5999 15.91396371  2768"}}, "geometry": {"type": "Point", "coordinates": [65.03066236990816, 13.957132051102056]}}, {"type": "Feature", "properties": {"norad_id": 66808, "name": "STARLINK-36071", "group": "last-30-days", "lat": 12.580139692103371, "lon": 66.63789977999322, "alt_km": 298.3334055602454, "timestamp": "2025-12-11T08:58:25.855958+00:00", "meta": {"OBJECT_NAME": "STARLINK-36071", "OBJECT_ID": "2025-278T", "EPOCH": "2025-12-11T04:00:01.998720", "MEAN_MOTION": 15.91447019, "ECCENTRICITY": 0.0001922, "INCLINATION": 42.9984, "RA_OF_ASC_NODE": 261.7829, "ARG_OF_PERICENTER": 274.215, "MEAN_ANOMALY": 138.6237, "EPHEMERIS_TYPE": 0, "CLASSIFICATION_TYPE": "U", "NORAD_CAT_ID": 66808, "ELEMENT_SET_NO": 999, "REV_AT_EPOCH": 270, "BSTAR": -0.0041937, "MEAN_MOTION_DOT": -0.01398545, "MEAN_MOTION_DDOT": 0.0005551}, "tle": {"line1": "1 66808U 25278T   25345.16668980 -.01398545  55510-3 -41937-2 0  9997", "line2": "2 66808  42.9984 261.7829 0001922 274.2150 138.6237 15.91447019  2706"}}, "geometry": {"type": "Point", "coordinates": [66.63789977999322, 12.580139692103371]}}, {"type": "Feature", "properties": {"norad_id": 66809, "name": "STARLINK-35979", "group": "last-30-days", "lat": 7.661846824193588, "lon": 72.1752487317296, "alt_km": 298.64852563608747, "timestamp": "2025-12-11T08:58:25.855968+00:00", "meta": {"OBJECT_NAME": "STARLINK-35979", "OBJECT_ID": "2025-278U", "EPOCH": "2025-12-11T04:00:01.998720", "MEAN_MOTION": 15.91554813, "ECCENTRICITY": 0.0001972, "INCLINATION": 42.9983, "RA_OF_ASC_NODE": 261.7645, "ARG_OF_PERICENTER": 274.4644, "MEAN_ANOMALY": 145.6508, "EPHEMERIS_TYPE": 0, "CLASSIFICATION_TYPE": "U", "NORAD_CAT_ID": 66809, "ELEMENT_SET_NO": 999, "REV_AT_EPOCH": 270, "BSTAR": -0.0042681, "MEAN_MOTION_DOT": -0.01430932, "MEAN_MOTION_DDOT": 0.00057949}, "tle": {"line1": "1 66809U 25278U   25345.16668980 -.01430932  57949-3 -42681-2 0  9990", "line2": "2 66809  42.9983 261.7645 0001972 274.4644 145.6508 15.91554813  2707"}}, "geometry": {"type": "Point", "coordinates": [72.1752487317296, 7.661846824193588]}}, {"type": "Feature", "properties": {"norad_id": 66810, "name": "STARLINK-36046", "group": "last-30-days", "lat": 10.914456151047336, "lon": 68.54546447319667, "alt_km": 298.4224330503357, "timestamp": "2025-12-11T08:58:25.855978+00:00", "meta": {"OBJECT_NAME": "STARLINK-36046", "OBJECT_ID": "2025-278V", "EPOCH": "2025-12-11T04:00:01.998720", "MEAN_MOTION": 15.91486298, "ECCENTRICITY": 0.0001933, "INCLINATION": 42.9985, "RA_OF_ASC_NODE": 261.777, "ARG_OF_PERICENTER": 273.3683, "MEAN_ANOMALY": 141.9499, "EPHEMERIS_TYPE": 0, "CLASSIFICATION_TYPE": "U", "NORAD_CAT_ID": 66810, "ELEMENT_SET_NO": 999, "REV_AT_EPOCH": 247, "BSTAR": -0.0042402, "MEAN_MOTION_DOT": -0.01416708, "MEAN_MOTION_DDOT": 0.0005686}, "tle": {"line1": "1 66810U 25278V   25345.16668980 -.01416708  56860-3 -42402-2 0  9999", "line2": "2 66810  42.9985 261.7770 0001933 273.3683 141.9499 15.91486298  2471"}}, "geometry": {"type": "Point", "coordinates": [68.54546447319667, 10.914456151047336]}}, {"type": "Feature", "properties": {"norad_id": 66811, "name": "STARLINK-36045", "group": "last-30-days", "lat": 9.211440266525678, "lon": 70.4597301623395, "alt_km": 298.6019235208769, "timestamp": "2025-12-11T08:58:25.855989+00:00", "meta": {"OBJECT_NAME": "STARLINK-36045", "OBJECT_ID": "2025-278W", "EPOCH": "2025-12-11T04:00:01.998720", "MEAN_MOTION": 15.91520507, "ECCENTRICITY": 0.0001911, "INCLINATION": 42.9986, "RA_OF_ASC_NODE": 261.7706, "ARG_OF_PERICENTER": 276.6732, "MEAN_ANOMALY": 141.1637, "EPHEMERIS_TYPE": 0, "CLASSIFICATION_TYPE": "U", "NORAD_CAT_ID": 66811, "ELEMENT_SET_NO": 999, "REV_AT_EPOCH": 270, "BSTAR": -0.0042526, "MEAN_MOTION_DOT": -0.0142328, "MEAN_MOTION_DDOT": 0.00057364}, "tle": {"line1": "1 66811U 25278W   25345.16668980 -.01423280  57364-3 -42526-2 0  9990", "line2": "2 66811  42.9986 261.7706 0001911 276.6732 141.1637 15.91520507  2703"}}, "geometry": {"type": "Point", "coordinates": [70.4597301623395, 9.211440266525678]}}, {"type": "Feature", "properties": {"norad_id": 66812, "name": "STARLINK-36054", "group": "last-30-days", "lat": 6.297009582493873, "lon": 73.67019373995949, "alt_km": 298.74083905535554, "timestamp": "2025-12-11T08:58:25.855999+00:00", "meta": {"OBJECT_NAME": "STARLINK-36054", "OBJECT_ID": "2025-278X", "EPOCH": "2025-12-11T04:00:01.998720", "MEAN_MOTION": 15.91590588, "ECCENTRICITY": 0.000189, "INCLINATION": 42.9985, "RA_OF_ASC_NODE": 261.7596, "ARG_OF_PERICENTER": 276.3762, "MEAN_ANOMALY": 145.7321, "EPHEMERIS_TYPE": 0, "CLASSIFICATION_TYPE": "U", "NORAD_CAT_ID": 66812, "ELEMENT_SET_NO": 999, "REV_AT_EPOCH": 270, "BSTAR": -0.0042961, "MEAN_MOTION_DOT": -0.01442825, "MEAN_MOTION_DDOT": 0.00058856}, "tle": {"line1": "1 66812U 25278X   25345.16668980 -.01442825  58856-3 -42961-2 0  9997", "line2": "2 66812  42.9985 261.7596 0001890 276.3762 145.7321 15.91590588  2702"}}, "geometry": {"type": "Point", "coordinates": [73.67019373995949, 6.297009582493873]}}, {"type": "Feature", "properties": {"norad_id": 66813, "name": "STARLINK-36042", "group": "last-30-days", "lat": 5.0404011431408176, "lon": 75.03522127263729, "alt_km": 298.7678724806492, "timestamp": "2025-12-11T08:58:25.856011+00:00", "meta": {"OBJECT_NAME": "STARLINK-36042", "OBJECT_ID": "2025-278Y", "EPOCH": "2025-12-11T04:00:01.998720", "MEAN_MOTION": 15.91624926, "ECCENTRICITY": 0.0001932, "INCLINATION": 42.9985, "RA_OF_ASC_NODE": 261.7549, "ARG_OF_PERICENTER": 275.4018, "MEAN_ANOMALY": 148.5355, "EPHEMERIS_TYPE": 0, "CLASSIFICATION_TYPE": "U", "NORAD_CAT_ID": 66813, "ELEMENT_SET_NO": 999, "REV_AT_EPOCH": 270, "BSTAR": -0.0043, "MEAN_MOTION_DOT": -0.01446672, "MEAN_MOTION_DDOT": 0.00059163}, "tle": {"line1": "1 66813U 25278Y   25345.16668980 -.01446672  59163-3 -43000-2 0  9999", "line2": "2 66813  42.9985 261.7549 0001932 275.4018 148.5355 15.91624926  2704"}}, "geometry": {"type": "Point", "coordinates": [75.03522127263729, 5.0404011431408176]}}, {"type": "Feature", "properties": {"norad_id": 66814, "name": "STARLINK-35984", "group": "last-30-days", "lat": -5.265373577607044, "lon": 86.10436909796107, "alt_km": 299.29909975936334, "timestamp": "2025-12-11T08:58:25.856021+00:00", "meta": {"OBJECT_NAME": "STARLINK-35984", "OBJECT_ID": "2025-278Z", "EPOCH": "2025-12-11T04:00:01.998720", "MEAN_MOTION": 15.91803841, "ECCENTRICITY": 0.0001795, "INCLINATION": 42.9983, "RA_OF_ASC_NODE": 261.7166, "ARG_OF_PERICENTER": 275.576, "MEAN_ANOMALY": 163.3731, "EPHEMERIS_TYPE": 0, "CLASSIFICATION_TYPE": "U", "NORAD_CAT_ID": 66814, "ELEMENT_SET_NO": 999, "REV_AT_EPOCH": 279, "BSTAR": -0.0043933, "MEAN_MOTION_DOT": -0.01491294, "MEAN_MOTION_DDOT": 0.00062662}, "tle": {"line1": "1 66814U 25278Z   25345.16668980 -.01491294  62662-3 -43933-2 0  9993", "line2": "2 66814  42.9983 261.7166 0001795 275.5760 163.3731 15.91803841  2797"}}, "geometry": {"type": "Point", "coordinates": [86.10436909796107, -5.265373577607044]}}, {"type": "Feature", "properties": {"norad_id": 66815, "name": "STARLINK-35985", "group": "last-30-days", "lat": -3.9298419549055015, "lon": 84.6612493938351, "alt_km": 299.25046830637075, "timestamp": "2025-12-11T08:58:25.856032+00:00", "meta": {"OBJECT_NAME": "STARLINK-35985", "OBJECT_ID": "2025-278AA", "EPOCH": "2025-12-11T04:00:01.998720", "MEAN_MOTION": 15.91771019, "ECCENTRICITY": 0.0001899, "INCLINATION": 42.9981, "RA_OF_ASC_NODE": 261.7215, "ARG_OF_PERICENTER": 274.4168, "MEAN_ANOMALY": 162.592, "EPHEMERIS_TYPE": 0, "CLASSIFICATION_TYPE": "U", "NORAD_CAT_ID": 66815, "ELEMENT_SET_NO": 999, "REV_AT_EPOCH": 279, "BSTAR": -0.0044114, "MEAN_MOTION_DOT": -0.01494846, "MEAN_MOTION_DDOT": 0.00062917}, "tle": {"line1": "1 66815U 25278AA  25345.16668980 -.01494846  62917-3 -44114-2 0  9995", "line2": "2 66815  42.9981 261.7215 0001899 274.4168 162.5920 15.91771019  2798"}}, "geometry": {"type": "Point", "coordinates": [84.6612493938351, -3.9298419549055015]}}]}